NORAD_CAT_ID,OBJECT_NAME,OBJECT_TYPE,EPOCH,MEAN_MOTION,ECCENTRICITY,INCLINATION,RA_OF_ASC_NODE,ARG_OF_PERICENTER,MEAN_ANOMALY,BSTAR,MEAN_MOTION_DOT,MEAN_MOTION_DDOT,TLE_LINE0,TLE_LINE1,TLE_LINE2,SEMIMAJOR_AXIS,PERIOD,APOGEE,PERIGEE,DECAYED
49730.0,STARLINK-3249,PAYLOAD,2024-02-24 20:28:55,15.08843564,0.0001373,53.2162,258.5203,87.6377,272.4772,8.2949e-05,1.033e-05,0.0,0 STARLINK-3249,1 49730U 21115G   24055.85342227  .00001033  00000-0  82949-4 0  9995,2 49730  53.2162 258.5203 0001373  87.6377 272.4772 15.08843564124205,6917.869,95.437,540.684,538.785,0.0
49730.0,STARLINK-3249,PAYLOAD,2024-02-25 12:22:47,15.088386,0.0001384,53.2168,255.5492,92.2225,267.8925,5.5728e-05,5.99e-06,0.0,0 STARLINK-3249,1 49730U 21115G   24056.51582626  .00000599  00000-0  55728-4 0  9999,2 49730  53.2168 255.5492 0001384  92.2225 267.8925 15.08838600124308,6917.885,95.438,540.707,538.792,0.0
49730.0,STARLINK-3249,PAYLOAD,2024-02-25 20:19:43,15.0883735,0.0001377,53.2168,254.062,91.543,268.572,3.8531e-05,3.25e-06,0.0,0 STARLINK-3249,1 49730U 21115G   24056.84702814  .00000325  00000-0  38531-4 0  9998,2 49730  53.2168 254.0620 0001377  91.5430 268.5720 15.08837350123241,6917.888,95.438,540.706,538.801,0.0
49730.0,STARLINK-3249,PAYLOAD,2024-02-26 18:35:07,15.08835661,0.0001333,53.2163,249.8993,96.6206,263.4938,-3.0231e-05,-7.69e-06,0.0,0 STARLINK-3249,1 49730U 21115G   24057.77439383 -.00000769  00000-0 -30231-4 0  9992,2 49730  53.2163 249.8993 0001333  96.6206 263.4938 15.08835661124496,6917.894,95.438,540.681,538.836,0.0
49730.0,STARLINK-3249,PAYLOAD,2024-02-26 21:45:53,15.08837777,0.0001321,53.2159,249.3045,97.425,262.6892,-1.1208e-05,-4.66e-06,0.0,0 STARLINK-3249,1 49730U 21115G   24057.90687199 -.00000466  00000-0 -11208-4 0  9994,2 49730  53.2159 249.3045 0001321  97.4250 262.6892 15.08837777123409,6917.887,95.438,540.666,538.838,0.0
49730.0,STARLINK-3249,PAYLOAD,2024-02-27 12:04:21,15.08836119,0.0001256,53.2153,246.6273,87.967,272.1466,3.7375e-05,3.07e-06,0.0,0 STARLINK-3249,1 49730U 21115G   24058.50303229  .00000307  00000-0  37375-4 0  9995,2 49730  53.2153 246.6273 0001256  87.9670 272.1466 15.08836119123494,6917.892,95.438,540.626,538.888,0.0
49730.0,STARLINK-3249,PAYLOAD,2024-02-27 20:01:17,15.08838474,0.0001302,53.2157,245.1407,88.4348,271.6793,6.1477e-05,6.91e-06,0.0,0 STARLINK-3249,1 49730U 21115G   24058.83423080  .00000691  00000-0  61477-4 0  9995,2 49730  53.2157 245.1407 0001302  88.4348 271.6793 15.08838474124653,6917.885,95.438,540.651,538.849,0.0
49730.0,STARLINK-3249,PAYLOAD,2024-02-27 21:36:40,15.08842746,0.0001362,53.2154,244.8416,91.6406,268.4742,7.7211e-05,9.41e-06,0.0,0 STARLINK-3249,1 49730U 21115G   24058.90046759  .00000941  00000-0  77211-4 0  9998,2 49730  53.2154 244.8416 0001362  91.6406 268.4742 15.08842746123556,6917.872,95.437,540.679,538.795,0.0
49730.0,STARLINK-3249,PAYLOAD,2024-02-28 11:55:09,15.08837718,0.0001316,53.2153,242.1639,90.3936,269.7207,4.8425e-05,4.83e-06,0.0,0 STARLINK-3249,1 49730U 21115G   24059.49663226  .00000483  00000-0  48425-4 0  9993,2 49730  53.2153 242.1639 0001316  90.3936 269.7207 15.08837718123649,6917.887,95.438,540.663,538.842,0.0
49730.0,STARLINK-3249,PAYLOAD,2024-02-28 18:16:41,15.08840612,0.0001337,53.2159,240.9762,88.7249,271.3896,6.1864e-05,6.97e-06,0.0,0 STARLINK-3249,1 49730U 21115G   24059.76159002  .00000697  00000-0  61864-4 0  9994,2 49730  53.2159 240.9762 0001337  88.7249 271.3896 15.08840612123683,6917.879,95.438,540.668,538.819,0.0
49730.0,STARLINK-3249,PAYLOAD,2024-02-29 11:45:55,15.08842352,0.0001255,53.2161,237.7054,84.5658,275.5477,9.2799e-06,-1.4e-06,0.0,0 STARLINK-3249,1 49730U 21115G   24060.49023094 -.00000140  00000-0  92799-5 0  9993,2 49730  53.2161 237.7054 0001255  84.5658 275.5477 15.08842352124901,6917.873,95.437,540.606,538.87,0.0
49730.0,STARLINK-3249,PAYLOAD,2024-02-29 21:18:14,15.08846173,0.0001318,53.2169,235.9206,91.4213,268.693,3.3093e-05,2.39e-06,0.0,0 STARLINK-3249,1 49730U 21115G   24060.88766658  .00000239  00000-0  33093-4 0  9995,2 49730  53.2169 235.9206 0001318  91.4213 268.6930 15.08846173123857,6917.862,95.437,540.638,538.815,0.0
49730.0,STARLINK-3249,PAYLOAD,2024-03-01 14:47:29,15.08837562,0.0001317,53.2163,232.6504,87.9749,272.1394,-7.8959e-06,-4.14e-06,0.0,0 STARLINK-3249,1 49730U 21115G   24061.61631339 -.00000414  00000-0 -78959-5 0  9992,2 49730  53.2163 232.6504 0001317  87.9749 272.1394 15.08837562123967,6917.888,95.438,540.664,538.842,0.0
49730.0,STARLINK-3249,PAYLOAD,2024-03-01 17:58:15,15.08839869,0.0001325,53.2164,232.0554,87.4548,272.6595,7.9291e-06,-1.62e-06,0.0,0 STARLINK-3249,1 49730U 21115G   24061.74879153 -.00000162  00000-0  79291-5 0  9993,2 49730  53.2164 232.0554 0001325  87.4548 272.6595 15.08839869125094,6917.881,95.438,540.662,538.829,0.0
49730.0,STARLINK-3249,PAYLOAD,2024-03-02 14:38:16,15.08837712,0.0001314,53.2167,228.1895,86.8389,273.2753,2.1205e-05,5e-07,0.0,0 STARLINK-3249,1 49730U 21115G   24062.60991297  .00000050  00000-0  21205-4 0  9999,2 49730  53.2167 228.1895 0001314  86.8389 273.2753 15.08837712124115,6917.887,95.438,540.661,538.843,0.0
49730.0,STARLINK-3249,PAYLOAD,2024-03-02 17:49:02,15.08840184,0.0001336,53.2169,227.5946,87.648,272.4665,3.3535e-05,2.46e-06,0.0,0 STARLINK-3249,1 49730U 21115G   24062.74239121  .00000246  00000-0  33535-4 0  9991,2 49730  53.2169 227.5946 0001336  87.6480 272.4665 15.08840184124134,6917.88,95.438,540.669,538.821,0.0
49730.0,STARLINK-3249,PAYLOAD,2024-03-03 03:21:21,15.08839381,0.0001274,53.2167,225.8102,85.0298,275.084,8.4252e-06,-1.54e-06,0.0,0 STARLINK-3249,1 49730U 21115G   24063.13983257 -.00000154  00000-0  84252-5 0  9993,2 49730  53.2167 225.8102 0001274  85.0298 275.0840 15.08839381125308,6917.882,95.438,540.629,538.866,0.0
49730.0,STARLINK-3249,PAYLOAD,2024-03-03 14:29:03,15.0883711,0.0001321,53.2177,223.7291,87.3884,272.7259,1.2392e-05,-9.1e-07,0.0,0 STARLINK-3249,1 49730U 21115G   24063.60351547 -.00000091  00000-0  12392-4 0  9991,2 49730  53.2177 223.7291 0001321  87.3884 272.7259 15.08837110124264,6917.889,95.438,540.668,538.84,0.0
49730.0,STARLINK-3249,PAYLOAD,2024-03-03 20:50:35,15.08844353,0.0001386,53.2173,222.5367,84.5536,275.5614,5.8875e-05,6.49e-06,0.0,0 STARLINK-3249,1 49730U 21115G   24063.86846997  .00000649  00000-0  58875-4 0  9991,2 49730  53.2173 222.5367 0001386  84.5536 275.5614 15.08844353124303,6917.867,95.437,540.691,538.773,0.0
49730.0,STARLINK-3249,PAYLOAD,2024-03-04 11:09:03,15.08849805,0.0001262,53.2175,219.8626,85.9745,274.1392,0.00012803,1.751e-05,0.0,0 STARLINK-3249,1 49730U 21115G   24064.46462090  .00001751  00000-0  12803-3 0  9991,2 49730  53.2175 219.8626 0001262  85.9745 274.1392 15.08849805125500,6917.85,95.437,540.588,538.842,0.0
49730.0,STARLINK-3249,PAYLOAD,2024-03-04 14:19:48,15.08867881,0.0001544,53.2179,219.2698,100.9627,259.1539,0.00025705,3.808e-05,0.0,0 STARLINK-3249,1 49730U 21115G   24064.59708440  .00003808  00000-0  25705-3 0  9997,2 49730  53.2179 219.2698 0001544 100.9627 259.1539 15.08867881124416,6917.795,95.436,540.728,538.592,0.0
49730.0,STARLINK-3249,PAYLOAD,2024-03-04 17:30:37,15.08823058,0.0001299,53.2179,218.6753,91.3647,268.7494,-0.00012541,-2.282e-05,0.0,0 STARLINK-3249,1 49730U 21115G   24064.72960195 -.00002282  00000-0 -12541-3 0  9990,2 49730  53.2179 218.6753 0001299  91.3647 268.7494 15.08823058125542,6917.932,95.439,540.696,538.899,0.0
49730.0,STARLINK-3249,PAYLOAD,2024-03-05 14:10:38,15.08828704,0.0001557,53.2183,214.8107,100.9338,259.183,-5.7886e-05,-1.209e-05,0.0,0 STARLINK-3249,1 49730U 21115G   24065.59072220 -.00001209  00000-0 -57886-4 0  9999,2 49730  53.2183 214.8107 0001557 100.9338 259.1830 15.08828704124561,6917.915,95.438,540.857,538.703,0.0
49730.0,STARLINK-3249,PAYLOAD,2024-03-05 18:56:47,15.08837242,0.0001197,53.2181,213.9151,74.2554,285.857,2.539e-05,1.16e-06,0.0,0 STARLINK-3249,1 49730U 21115G   24065.78943533  .00000116  00000-0  25390-4 0  9993,2 49730  53.2181 213.9151 0001197  74.2554 285.8570 15.08837242125702,6917.889,95.438,540.582,538.926,0.0
49730.0,STARLINK-3249,PAYLOAD,2024-03-06 09:15:16,15.08834685,0.0001292,53.2176,211.2387,83.1185,276.9954,-0.00010218,-1.913e-05,0.0,0 STARLINK-3249,1 49730U 21115G   24066.38560204 -.00001913  00000-0 -10218-3 0  9990,2 49730  53.2176 211.2387 0001292  83.1185 276.9954 15.08834685125797,6917.897,95.438,540.655,538.868,0.0
49730.0,STARLINK-3249,PAYLOAD,2024-03-06 14:01:23,15.08860498,0.0001768,53.2181,210.3476,115.9888,244.1287,-0.00010509,-1.961e-05,0.0,0 STARLINK-3249,1 49730U 21115G   24066.58430474 -.00001961  00000-0 -10509-3 0  9993,2 49730  53.2181 210.3476 0001768 115.9888 244.1287 15.08860498124712,6917.818,95.436,540.906,538.46,0.0
49730.0,STARLINK-3249,PAYLOAD,2024-03-06 17:12:08,15.08880565,0.0001196,53.2181,209.7519,71.9556,288.1566,9.052e-05,1.155e-05,0.0,0 STARLINK-3249,1 49730U 21115G   24066.71676506  .00001155  00000-0  90520-4 0  9991,2 49730  53.2181 209.7519 0001196  71.9556 288.1566 15.08880565125840,6917.756,95.435,540.449,538.794,0.0
49730.0,STARLINK-3249,PAYLOAD,2024-03-07 02:44:29,15.08837733,9.62e-05,53.2179,207.9677,79.1019,281.0082,0.00022272,3.258e-05,0.0,0 STARLINK-3249,1 49730U 21115G   24067.11422527  .00003258  00000-0  22272-3 0  9992,2 49730  53.2179 207.9677 0000962  79.1019 281.0082 15.08837733125907,6917.887,95.438,540.418,539.087,0.0
49730.0,STARLINK-3249,PAYLOAD,2024-03-07 13:52:12,15.08826342,0.0001456,53.2177,205.8883,81.3847,278.731,2.5975e-05,1.25e-06,0.0,0 STARLINK-3249,1 49730U 21115G   24067.57792396  .00000125  00000-0  25975-4 0  9990,2 49730  53.2177 205.8883 0001456  81.3847 278.7310 15.08826342124869,6917.922,95.438,540.794,538.78,0.0
49730.0,STARLINK-3249,PAYLOAD,2024-03-08 12:07:35,15.08849775,9.04e-05,53.2161,201.724,74.6643,285.4449,-4.8305e-05,-1.057e-05,0.0,0 STARLINK-3249,1 49730U 21115G   24068.50527444 -.00001057  00000-0 -48305-4 0  9993,2 49730  53.2161 201.7240 0000904  74.6643 285.4449 15.08849775126113,6917.851,95.437,540.341,539.09,0.0
